{"type":"Feature","properties":{"shapeName":"South Jeolla","shapeISO":"KR-46","shapeID":"68945753B5424648896322","shapeGroup":"KOR","shapeType":"ADM1"},"geometry":{"type":"MultiPolygon","coordinates":[[[[126.43690019998428,35.37056205659371],[126.45606529957399,35.35276927298361],[126.45850670711889,35.34544505394615],[126.44955488425057,35.34495677333649],[126.43189537926844,35.34935130421934],[126.41724694119341,35.3648949238617],[126.41138756578357,35.36985911680483],[126.38941490957052,35.342474676864924],[126.38070722655732,35.327093817425805],[126.37728925869237,35.31150950705813],[126.37899824307453,35.304592189877724],[126.38217207108426,35.29828522278484],[126.38379967491517,35.291734116736166],[126.38038170705022,35.28416575694416],[126.37387128992816,35.27838776208563],[126.36744225425673,35.274318751609144],[126.36158287884689,35.26902903915891],[126.35670006555563,35.25999583483997],[126.36451256610212,35.25873444214085],[126.36817467472156,35.25674062717826],[126.37134850363066,35.25446198073587],[126.37728925869237,35.252590236150525],[126.35914147220126,35.24896881735708],[126.33838951886128,35.24803294506444],[126.32007897216693,35.244574285574856],[126.30892988430674,35.233303127337535],[126.33741295674258,35.23358795791796],[126.35067793084193,35.23533763212606],[126.36353600398343,35.2394880231538],[126.36158287884689,35.22565338699428],[126.36670983199326,35.217718816969864],[126.37728925869237,35.21161530170485],[126.37509199280134,35.20237864825606],[126.37037194061259,35.19696686362988],[126.36573326897519,35.19285716422678],[126.36353600398343,35.187974350935576],[126.37110436287605,35.17352936378916],[126.4039005874422,35.142157293924015],[126.41415449283568,35.11969635620193],[126.42074628960961,35.11420319192382],[126.42872155035934,35.11054108330438],[126.44752037856267,35.10667552285713],[126.45240319095456,35.10028717701164],[126.45289147156427,35.082464910926944],[126.45028730561478,35.066595769978846],[126.42505944084064,35.019761460123334],[126.41439863359017,35.02875397281764],[126.40723717475589,35.03896719018371],[126.40560957092498,35.049953517840606],[126.41138756578357,35.06134674735455],[126.40381920689094,35.06488678559674],[126.38697350382415,35.06537506710572],[126.37728925869237,35.06818268398371],[126.36532636801758,35.074042059393605],[126.36166425939814,35.07729726795458],[126.36068769638018,35.08295319243592],[126.35670006555563,35.09613678598396],[126.35360761809716,35.097845770366064],[126.3489689455605,35.096421616564385],[126.34498131563532,35.096421616564385],[126.34302819139793,35.102362371626214],[126.34424889427112,35.108140367384124],[126.34872480570527,35.11749909121016],[126.35141035220602,35.135972398107754],[126.3501082687817,35.14557526178896],[126.34302819139793,35.156968492202225],[126.33497155009707,35.13410065262309],[126.32789147181404,35.12262604435654],[126.31519615977504,35.11595286703124],[126.30722089902531,35.131781317254024],[126.28907311343346,35.139390366871964],[126.26864668139933,35.13715241115489],[126.2542423840788,35.123439846271935],[126.25782311304624,35.10683828306037],[126.28353925932947,35.0788434921335],[126.27418053460406,35.06818268398371],[126.28834069116999,35.052964584747826],[126.30250084683667,35.053371485705554],[126.30941816491645,35.06622955884711],[126.30152428471808,35.0886904965692],[126.32064863422715,35.08331940266834],[126.33822675865804,35.07013580912036],[126.36670983199326,35.03778717713658],[126.37411543068265,35.0168317728681],[126.34620201940777,34.99408600456553],[126.34921308721425,34.9726016298614],[126.3242293631946,34.97695547091831],[126.3129988938839,34.97744375242729],[126.30152428471808,34.9726016298614],[126.30640709710985,34.9635684273411],[126.31259199292617,34.95612213702708],[126.32007897216693,34.94989655228409],[126.328868034832,34.94472890841246],[126.32471764380432,34.94326406478484],[126.31519615977504,34.93789297088398],[126.3277287116108,34.93109772318144],[126.34522545728908,34.92641836081873],[126.36329186322894,34.92743561366268],[126.37728925869237,34.93789297088398],[126.37696373828601,34.94725169471002],[126.37208092499475,34.95872630387589],[126.37061608226645,34.96849192865966],[126.38038170705022,34.9726016298614],[126.38795006594285,34.97483958467916],[126.39332115984371,34.979803777622294],[126.399994337169,34.98456451963693],[126.41138756578357,34.98627350491836],[126.43637128980322,34.981390691627155],[126.43051191529275,34.9726016298614],[126.41163170743744,34.96198151243692],[126.39771569072661,34.951483466289005],[126.39576256558996,34.93504466417994],[126.40170332065179,34.91547272298783],[126.41260826865675,34.89874909119766],[126.42505944084064,34.890692449896676],[126.41211998804704,34.881333726070636],[126.40870201928283,34.873968817207185],[126.41138756578357,34.85903554855179],[126.41098066482584,34.85126373873061],[126.40927168134306,34.84446849192739],[126.40512129031538,34.83722565344118],[126.39771569072661,34.82802968981838],[126.37728925869237,34.811265367302894],[126.3701277998581,34.801336981416625],[126.37354576862242,34.790716863992145],[126.38404381566966,34.78632233310924],[126.40560957092498,34.79218170761976],[126.41931790809508,34.79198817891137],[126.42099043126348,34.80231354443458],[126.42945397172343,34.805609441922286],[126.45606529957399,34.80072663042972],[126.46924889402135,34.804103907569356],[126.47803795668642,34.810451565387496],[126.48715253975797,34.813788152701136],[126.50074303516305,34.80809153929317],[126.49659264413526,34.80280182504424],[126.4912215502344,34.79238515764894],[126.48715253975797,34.78705475537271],[126.49341881612554,34.78314850509946],[126.49341881612554,34.78082916883113],[126.51327558699882,34.78229401155943],[126.52369225439406,34.79393138182786],[126.53492272190613,34.82802968981838],[126.54688561258104,34.847723699589096],[126.5485945969632,34.849066472839525],[126.54712975423479,34.85809967715841],[126.54053795656148,34.87494538022514],[126.54175866033393,34.883246161381294],[126.55274498799088,34.895697332665804],[126.56763756592102,34.90143463679908],[126.58139082062996,34.89801666893419],[126.58944746193083,34.883246161381294],[126.58912194062509,34.87287018381198],[126.58472740974219,34.86676666944629],[126.57943769639269,34.86188385615509],[126.57577558687387,34.8552920593811],[126.57577558687387,34.844875392885115],[126.57837975372274,34.838039455356636],[126.57968183714718,34.83144765768333],[126.57577558687387,34.82176341435013],[126.62769616004982,34.825588283172806],[126.65040123762708,34.82217031530786],[126.66529381555722,34.80809153929317],[126.65487714906124,34.80853913007684],[126.64657636790514,34.80711497627516],[126.63111412881403,34.80072663042972],[126.63819420709706,34.788031316592026],[126.61475670725633,34.789455471293024],[126.56893964934545,34.80072663042972],[126.54444420683478,34.795721746761274],[126.53248131615987,34.782863673619715],[126.53052819102322,34.765285549188775],[126.53492272190613,34.74603913020172],[126.53028405026873,34.747503972930076],[126.52759850376799,34.749253648037495],[126.52515709712236,34.75128815282602],[126.52125084684917,34.75348541871716],[126.50586998830943,34.75104401207153],[126.46014859937839,34.778755392447465],[126.42212790727717,34.76478357100507],[126.39232840723025,34.768607452372066],[126.37831687262565,34.763887705952925],[126.36401690835373,34.7491601077528],[126.36705994615966,34.739664411783224],[126.39017860216086,34.73339745462886],[126.41537519570875,34.73899974174475],[126.43576744091467,34.728105394048725],[126.46534264374804,34.729681707744646],[126.49024498811582,34.725572007442224],[126.50839277370756,34.718491929159256],[126.54110761772245,34.68398672111033],[126.5627547544284,34.67096588686621],[126.555430535391,34.66351959835083],[126.58545983200565,34.64179108289221],[126.60254967492767,34.63287994984984],[126.62362714867402,34.629950261695285],[126.60270100294895,34.62553248063955],[126.57387257915627,34.633111352606875],[126.55003784157316,34.643830033029644],[126.53155606216262,34.65259658836192],[126.51911134531235,34.650369806721244],[126.5400496750525,34.62759023560096],[126.53571133021376,34.623177624747655],[126.52512592122434,34.62890229160752],[126.51119326975368,34.637154826833864],[126.50034546467157,34.64581857616639],[126.48239978372305,34.65166988915411],[126.4693624855903,34.65867434524489],[126.46330599407645,34.66542139288305],[126.45289147156427,34.67096588686621],[126.45053144636927,34.67698802337861],[126.45093834732688,34.680853582926545],[126.4506942065724,34.684881902677716],[126.45333635179122,34.6978838241792],[126.44788115688993,34.705878563345095],[126.4059694751113,34.7134080130694],[126.37861288897375,34.71118216312635],[126.38437937161075,34.69369878587031],[126.37677542384677,34.679470152225804],[126.37985478706878,34.65450554239692],[126.38613374117926,34.63583540537968],[126.39651901144327,34.636604222307085],[126.40290177519682,34.6507478304481],[126.41610761797222,34.65273672072311],[126.4125665419125,34.62976606794973],[126.42529931161403,34.61927176927679],[126.43499714730058,34.60678590304701],[126.45557701896428,34.60309479398961],[126.4615177740261,34.60065338734398],[126.47274824333681,34.60203685131967],[126.46461022238395,34.58466217691796],[126.45313561321802,34.58380768427725],[126.43189537926844,34.59589264532934],[126.38233483218687,34.60272858285788],[126.36988366000298,34.6088727888482],[126.34921308721425,34.65668366082235],[126.34595787865328,34.66766998937857],[126.34424889427112,34.677883204946],[126.34717858242573,34.687892971383576],[126.35670006555563,34.69822825732825],[126.32618248833126,34.73582591373497],[126.31959069065795,34.747748113684565],[126.31373131614737,34.75104401207153],[126.30591881560088,34.75287506683094],[126.2984318372595,34.75348541871716],[126.29029381630664,34.75023021015613],[126.28882897177971,34.74241770960964],[126.28964277369516,34.73314036723423],[126.28858483192448,34.725572007442224],[126.27808678487725,34.70331451974931],[126.26937910186416,34.67129140817201],[126.27108808714559,34.64248281532974],[126.29184003958619,34.629950261695285],[126.31861412943863,34.61912669514089],[126.32276451866767,34.6088727888482],[126.31552168108078,34.60407135610825],[126.30551191464326,34.604193427384814],[126.30152428471808,34.6088727888482],[126.29761803534416,34.60333893384478],[126.29354902396835,34.60199616059441],[126.29184003958619,34.599107164064435],[126.29525800924978,34.589056707800864],[126.29786217519927,34.58803945495691],[126.31861412943863,34.571682033399156],[126.32496178455881,34.56964752771131],[126.33301842496041,34.570990301861],[126.3400985041427,34.574367579899956],[126.34302819139793,34.578192449621895],[126.34603925920453,34.5846214861927],[126.35206139391823,34.579779363626756],[126.35702558686137,34.57172272322515],[126.35670006555563,34.56854889521537],[126.3804630867022,34.558905340808906],[126.38900800861279,34.54970937718605],[126.39087975409745,34.53384023623795],[126.40560957092498,34.5386416689779],[126.4173283208454,34.54035065336001],[126.4387313158976,34.540676173766485],[126.44849694068137,34.5392927097908],[126.45704186259195,34.53904856993563],[126.46591230580827,34.540676173766485],[126.46933027367322,34.54970937718605],[126.47348066470101,34.556545314714526],[126.47958418086534,34.56110260580067],[126.48633873784252,34.56093984559743],[126.499278190636,34.55434804882344],[126.50757897179221,34.55426666917151],[126.51392662871103,34.55780670831297],[126.5229598321306,34.567084051587756],[126.52743574266549,34.56854889521537],[126.53964277409477,34.562974351285334],[126.53931725368841,34.553615626559974],[126.52955162890464,34.54295482020882],[126.51376386760842,34.53384023623795],[126.52320397198582,34.53115468973721],[126.53101647163294,34.52700429870947],[126.53720136834852,34.5210635436477],[126.54175866033393,34.51333242365246],[126.51685631596627,34.5128441430428],[126.49024498811582,34.50861237236313],[126.47030683669118,34.49648672058572],[126.46591230580827,34.472357489206786],[126.48194420695961,34.47675202008969],[126.48373457099376,34.4701602233157],[126.47999108182307,34.457831122408436],[126.47958418086534,34.445013739092815],[126.47730553532222,34.44358958529119],[126.47437584716772,34.438666083073315],[126.47584069079528,34.433254299346515],[126.486582878597,34.430812892700885],[126.50147545742652,34.42934804907327],[126.50879967466528,34.427232163733436],[126.51376386760842,34.42397695517241],[126.51758873822973,34.413763738705654],[126.51490319082961,34.403550523138165],[126.50074303516305,34.382310289188524],[126.49642988393202,34.37986888164363],[126.4919539715986,34.38108958541608],[126.48853600373366,34.380560614081105],[126.486582878597,34.36481354440957],[126.48487389421496,34.360825913585074],[126.47958418086534,34.35504791872654],[126.47958418086534,34.34882233308423],[126.50570722720681,34.34992096558017],[126.51832115959394,34.34784577006627],[126.52743574266549,34.34137604366953],[126.52930748815015,34.3300235048809],[126.51986738377286,34.305975653153894],[126.52125084684917,34.29417552268228],[126.53280683656635,34.292222398445006],[126.57886803523172,34.30475495028077],[126.60328209719114,34.30044179904985],[126.60328209719114,34.31199778876697],[126.60531660197967,34.32168203299949],[126.62964928518647,34.38922760636899],[126.63363691511165,34.395697332765735],[126.64478600387099,34.403469142586914],[126.67440839862877,34.409654039302495],[126.68222089917526,34.41400788035946],[126.68734785232164,34.4238955746211],[126.68751061342414,34.43134186403586],[126.69019615992488,34.43593984584726],[126.70337975437224,34.43756744967811],[126.70826256586474,34.43646881718223],[126.71753991003891,34.43183014464552],[126.72364342530386,34.430812892700885],[126.72689863386495,34.43301015769265],[126.72803795708614,34.43789297098385],[126.72706139406819,34.44277578337574],[126.72364342530386,34.445013739092815],[126.70875084737372,34.44989655238402],[126.72315514379488,34.460842190214976],[126.76148522156575,34.47919342673532],[126.73910566529423,34.50267161730136],[126.73511803536906,34.51487864783138],[126.76596113389928,34.52338287991603],[126.76563561259354,34.531805731449424],[126.75928795657398,34.54385000177621],[126.75521894609756,34.5576846370364],[126.7585555352099,34.567206121965],[126.76693769601798,34.57802969031803],[126.77784264402283,34.586493230778046],[126.78866621237592,34.589056707800864],[126.80005944099048,34.58201732024321],[126.80665123776453,34.56854889521537],[126.8078719406376,34.55316803577631],[126.80233808743287,34.540676173766485],[126.80616295715481,34.5210635436477],[126.80201256612713,34.47040436407019],[126.80982506577425,34.45123932473513],[126.8186141293387,34.44684479385222],[126.85702558676144,34.43756744967811],[126.88502037858768,34.42108795774311],[126.89795983228055,34.41771067880484],[126.89234459672582,34.429388738899206],[126.8918563161161,34.44013092670093],[126.8960067071439,34.44993724221001],[126.90479576890971,34.45868561414983],[126.93140709676015,34.447699285593615],[126.9407658205862,34.45457591384741],[126.93897545655216,34.49591705942481],[126.99415123828908,34.540676173766485],[126.98666425904833,34.553697007111225],[126.99130293068572,34.56435781526102],[127.00058027396051,34.57330963723001],[127.00717207073455,34.581529038734175],[127.00904381621922,34.59320709792928],[127.00855553471024,34.60423411721081],[127.01026451909229,34.612494207641646],[127.01783287888429,34.61570872637668],[127.03003991031369,34.61835358305149],[127.04273522235269,34.6244570983165],[127.06251061267471,34.636867579775014],[127.0991317069628,34.65448639493121],[127.1071883473644,34.66010162958656],[127.12525475420364,34.67975495043066],[127.13624108186048,34.688055730687495],[127.14804121233215,34.691473700351025],[127.17310631600378,34.687201238946045],[127.18531334743307,34.68667226761113],[127.19971764385423,34.691473700351025],[127.21371504021704,34.70555247636577],[127.23389733239605,34.748236395193544],[127.24805748806273,34.766546941887896],[127.27271569077652,34.73379140804707],[127.2907820967165,34.72138092658855],[127.31259199272631,34.72898997620649],[127.33155358203226,34.741156316910576],[127.33863366031528,34.733099677408234],[127.34400475421614,34.71527741132354],[127.35792076912821,34.69822825732825],[127.35010826858183,34.687811590832325],[127.33643639442414,34.663641668728076],[127.32992597730208,34.65668366082235],[127.31446373821097,34.65192291880771],[127.30298912904516,34.655015367165504],[127.29444420713446,34.664129950237054],[127.28842207062212,34.677191473407845],[127.293711784871,34.686712958336386],[127.29200279958957,34.69452545798356],[127.28516686296041,34.70062897324857],[127.27475019556516,34.70514557540804],[127.24594160182357,34.67890045778995],[127.24057050882197,34.67096588686621],[127.24146569128868,34.65582916908096],[127.24740644635051,34.648098049085775],[127.25513756634564,34.64150625231173],[127.26099694085622,34.629950261695285],[127.26132246216196,34.60040924658949],[127.24667402408704,34.583726303725996],[127.22217858157637,34.576361394862545],[127.19288170722507,34.574774480857684],[127.20753014440072,34.603989975557],[127.2124129567926,34.62018463691152],[127.21338951891119,34.636867579775014],[127.1988224622869,34.63100820526449],[127.19166100435189,34.623602605675785],[127.17920983216811,34.60203685131967],[127.1590275399891,34.58002350528062],[127.15186608205408,34.574774480857684],[127.12964928508654,34.56391022267866],[127.12330162906699,34.55536530166739],[127.12452233194017,34.540676173766485],[127.13379967521485,34.52631256717132],[127.14722741041669,34.52049388158741],[127.16293379026229,34.51797109618917],[127.17920983216811,34.51333242365246],[127.17636152366549,34.517320053577635],[127.17237389374031,34.52757395987038],[127.21200605583488,34.54466380369166],[127.2234806650008,34.54682037975675],[127.26099694085622,34.51333242365246],[127.2750818007845,34.48945330002982],[127.31592550435857,34.44490101986622],[127.34359785235904,34.445013739092815],[127.33082115976879,34.456488348258745],[127.32780172826722,34.47392946097591],[127.3566183943235,34.49196472968856],[127.37494096765158,34.4850365693822],[127.3917880134062,34.5047796011977],[127.43921959720672,34.540676173766485],[127.41841862631861,34.55528036879406],[127.38040826922634,34.54710467524063],[127.3719404039266,34.55173335900736],[127.35792076912821,34.55426666917151],[127.34595787935268,34.57501862161217],[127.34359785235904,34.578192449621895],[127.34937584721763,34.58584218996515],[127.36304772227459,34.593898830366754],[127.37916100397717,34.60000234563182],[127.39210045677078,34.60203685131967],[127.40674889394631,34.59813060104648],[127.45224043055146,34.574774480857684],[127.46461022218409,34.5773379578805],[127.48414147175163,34.57656484579104],[127.49444022093951,34.58377660820395],[127.50358984969182,34.59132477282009],[127.50075946737559,34.612163866869025],[127.49520918085909,34.62323639544337],[127.45224043055146,34.636867579775014],[127.45972740979221,34.6382510437507],[127.47730553512235,34.63816966409877],[127.4875594414151,34.636867579775014],[127.46615644636302,34.66217682510046],[127.4349064459758,34.678697006861455],[127.40601647168285,34.700018622261666],[127.39210045677078,34.73981354366015],[127.39486738382277,34.74249909106027],[127.40023847682426,34.74363841428146],[127.40235436306352,34.74713776179834],[127.3952742847805,34.75665924672688],[127.38526451924224,34.760199285868396],[127.36646569103891,34.75397370022614],[127.35792076912821,34.75971100525874],[127.36158287864703,34.77334218959044],[127.38306725425048,34.78327057457739],[127.42554772214976,34.79441966423616],[127.42554772214976,34.80072663042972],[127.40430748820006,34.805853582676775],[127.37850996226496,34.81513092685083],[127.36532636781772,34.82404205899388],[127.38160240972354,34.82802968981838],[127.42481529988629,34.82713450735167],[127.44467207075957,34.829169012140255],[127.47877037875003,34.83905670820059],[127.4838973318964,34.839544988810246],[127.48731529976135,34.84149811394684],[127.49390709743466,34.849066472839525],[127.51099694125594,34.88471100500891],[127.51441491002015,34.88694895982667],[127.51661217501191,34.891099350854404],[127.52125084664931,34.88983795815528],[127.52588951918608,34.88544342727238],[127.52808678507711,34.879828191717706],[127.52711022205915,34.87470123857133],[127.52271569117624,34.86493561378762],[127.52182050870954,34.85903554855179],[127.52442467465903,34.84926992376802],[127.53956139424304,34.823065496875245],[127.5366317069878,34.81924062715325],[127.53492272170627,34.813218492439546],[127.53541100411462,34.80809153929317],[127.54029381560713,34.80377838716288],[127.54615319101697,34.80304596579873],[127.55176842477306,34.802923895421486],[127.55591881580074,34.80072663042972],[127.57178795674884,34.77252838677566],[127.57984459715055,34.763128973123685],[127.58448326878784,34.746242580230955],[127.57504316530992,34.72654856956086],[127.56202233196507,34.70571523566963],[127.55591881580074,34.684556382271296],[127.560801629092,34.66217682510046],[127.57227623825781,34.647406316648244],[127.59009850434256,34.639308986420644],[127.614024284793,34.636867579775014],[127.63038170725008,34.6227074241084],[127.6407169931947,34.61798737191975],[127.64527428518022,34.62628815307585],[127.63795006614271,34.67096588686621],[127.63209069073287,34.685044663780275],[127.62427819108575,34.69822825732825],[127.62924238402888,34.6992861999982],[127.6306258471052,34.70111725475755],[127.63209069073287,34.70140208533803],[127.63795006614271,34.69822825732825],[127.65626061283706,34.731268621749564],[127.67855879035596,34.72736237237564],[127.7063908210796,34.715887762310444],[127.74154707084074,34.725572007442224],[127.74984785199683,34.737127997159405],[127.76132246206203,34.78705475537271],[127.77125084704903,34.81533437688006],[127.77450605561,34.829331773242814],[127.7756453788312,34.849066472839525],[127.7568465497285,34.84080638240869],[127.73975670680659,34.84170156487539],[127.72144616011224,34.844631252130625],[127.69996178540816,34.8422712260363],[127.66895592487606,34.8183454446866],[127.65650475359155,34.81191640811579],[127.64600670744369,34.81606679914353],[127.63477623813299,34.82802968981838],[127.61890709718489,34.83641185062646],[127.60116621165139,34.85635000205099],[127.58570397166102,34.8792178407308],[127.5764266292856,34.89691803643831],[127.57528730606441,34.9136416691278],[127.5806583990659,34.933661200204256],[127.59156334707086,34.94643789279456],[127.60718834726447,34.94131093964819],[127.62606855601916,34.90973541885455],[127.64112389415243,34.89911530232939],[127.6621199882469,34.90680573069994],[127.69996178540816,34.93162669541573],[127.70923912868295,34.94041575718148],[127.71322675860813,34.946722723375046],[127.72046959709428,34.96515534134596],[127.71827233210252,34.97040436397026],[127.71656334682109,34.98236725464511],[127.71924889422121,34.99005768391504],[127.7307235042864,34.982570704674345],[127.73658287879687,34.97288646044183],[127.7390242854425,34.96527741082389],[127.74439537934336,34.96019114840283],[127.75790449329781,34.958319402918164],[127.79843183695982,34.958644924223904],[127.80499042177064,34.95714697475313],[127.80246300666249,34.9615872262695],[127.80256636034926,34.98016490308788],[127.78913048718232,35.00729503004163],[127.72680870955435,35.06292471040712],[127.71606001156033,35.081373196016216],[127.70737837111494,35.10250885679835],[127.68505415282698,35.12168081281931],[127.66045617141526,35.13635692033563],[127.64691694636008,35.15625234586912],[127.64267947757594,35.2094015575359],[127.63265424999372,35.235007229300265],[127.6120870299925,35.254825141367235],[127.61746137943919,35.276632594818466],[127.56041059757104,35.31422719982544],[127.4964351753431,35.3331149359056],[127.46015831905129,35.31660431573664],[127.43101281139218,35.29097280555061],[127.39969689339694,35.28740713123415],[127.36652062432745,35.28720042655851],[127.33024376803553,35.28322134019277],[127.29345014870546,35.28376394345128],[127.27639692617731,35.29190298153742],[127.26120405472341,35.301488959547896],[127.24363406825773,35.297819933343305],[127.22286014178223,35.298052477340036],[127.19268110624807,35.293970038186785],[127.16394900883972,35.279914049194076],[127.12674197835963,35.28443573701969],[127.10266076088544,35.30539052974922],[127.10400434802227,35.338463446930575],[127.08364383359606,35.35724783022323],[127.07754601463694,35.37579966951921],[127.08643436065734,35.40463511791643],[127.06628055180613,35.42969818822087],[127.0368249857845,35.42838043950576],[127.02959028526357,35.418096829505146],[127.01977176325636,35.41039704009137],[127.01336388593461,35.39716787429802],[127.01098677002346,35.38290517793166],[126.98008426317824,35.382595120468466],[126.93316206257919,35.434478258464935],[126.90256961499585,35.45491628725688],[126.88510298131757,35.46096242937267],[126.86691287632823,35.462021796568706],[126.8502730649501,35.44589874912805],[126.81637332636797,35.44861176182343],[126.79125858011946,35.430214952158394],[126.79115522733196,35.416701565524875],[126.79208540331877,35.40316234046969],[126.78288699803659,35.39179352485132],[126.77027794806895,35.38422292754615],[126.77100141758137,35.373551743917915],[126.77296512324187,35.363319810760686],[126.76459354115912,35.34916046808121],[126.75136437356707,35.33978119654506],[126.73503462055135,35.33334747990233],[126.71787804613496,35.32926504254772],[126.70340864509296,35.322082017970786],[126.68997277192591,35.313968818306364],[126.65648644359453,35.30988638005243],[126.62475711534864,35.300481269195245],[126.59499149006524,35.29438345023607],[126.57008344939175,35.3012305771295],[126.57153039021534,35.32833486656091],[126.57793826663772,35.355258287040385],[126.58372602813381,35.391845200795444],[126.55489057793784,35.398175563751295],[126.45773888574104,35.376032213515884],[126.4370683129523,35.3706061872258],[126.43690019998428,35.37056205659371]],[[126.98556196541244,35.23877960919168],[127.00581912615178,35.19304596609851],[126.96644168533555,35.15007701344348],[126.90474002533199,35.15813853626452],[126.8502730649501,35.18488109048997],[126.82288455557784,35.2340770533134],[126.84448530525265,35.250768541535024],[126.8803487485959,35.24299123775546],[126.90660037640635,35.24787466078703],[126.93398888577849,35.254592597370504],[126.98556196541244,35.23877960919168]]],[[[127.1730249363518,34.48371002799547],[127.1403100923369,34.47870514522634],[127.12435957083756,34.4733340522248],[127.11052493557736,34.464911199792084],[127.11988366030278,34.45970286699378],[127.1237899096767,34.455226954660304],[127.12281334665863,34.45058828302291],[127.1173608731059,34.445013739092815],[127.1173608731059,34.43756744967811],[127.14128665535497,34.42430247557883],[127.15300540527528,34.4195824242895],[127.16895592497599,34.41771067880484],[127.21021569090146,34.42397695517241],[127.22868899779905,34.430243230640656],[127.24187259224641,34.44546132987654],[127.24512779990812,34.46405670805069],[127.23422285190316,34.4802920592312],[127.2205509768462,34.485744532784],[127.20427493583963,34.48676178562795],[127.1730249363518,34.48371002799547]]],[[[126.38005618574448,34.49843984572237],[126.35035241043545,34.538153386569604],[126.34945722706948,34.54682037975675],[126.32683353004347,34.53506094001045],[126.32227623805795,34.53384023623795],[126.31560306073277,34.53827545784617],[126.31080162889214,34.54515208520064],[126.30787194073753,34.55145905229347],[126.30543053499127,34.55426666917151],[126.29476972684154,34.558905340808906],[126.28044681097163,34.5683047553602],[126.26392662921069,34.57575104387564],[126.24773196695674,34.574774480857684],[126.24105878963155,34.56647369970153],[126.26677493591467,34.54975006701204],[126.27442467535855,34.53725820500222],[126.26832116009348,34.52204010576634],[126.25416100442692,34.51434967739573],[126.23829186257944,34.51569244974684],[126.22657311265914,34.52757395987038],[126.22380618560703,34.513413804203765],[126.21656334712088,34.508978582595546],[126.2070418630916,34.507635809345174],[126.19629967528988,34.50275299695329],[126.18702233201509,34.49420807504271],[126.18116295660525,34.48651764487346],[126.17212975408495,34.464911199792084],[126.14421634191069,34.4632022163093],[126.11573326857558,34.43618398570243],[126.10328209729107,34.40277741104876],[126.12427819138554,34.382310289188524],[126.12427819138554,34.403469142586914],[126.15308678512713,34.38849518410552],[126.15845787902799,34.382310289188524],[126.15560957142463,34.37718333514283],[126.14820397183587,34.37107981987782],[126.1425887380799,34.36375560084036],[126.14478600397092,34.35504791872654],[126.15642337334009,34.35260651208091],[126.1984969411809,34.35553620023552],[126.20997155034684,34.35879140789723],[126.30518639423678,34.4016787776535],[126.30925540471321,34.41771067880484],[126.30925540471321,34.42397695517241],[126.31714928491158,34.41990794469592],[126.33423912873286,34.406561590944705],[126.33594811311502,34.403469142586914],[126.34587649810192,34.409002996691015],[126.35385175885165,34.4195824242895],[126.37354576862242,34.45441315274485],[126.37891686342255,34.46930573067499],[126.38160240992329,34.48468659101343],[126.38005618574448,34.49843984572237]]],[[[127.78207441540201,34.684556382271296],[127.79420006628004,34.69379303572009],[127.79932701942641,34.70482005410224],[127.79664147202641,34.71417877792828],[127.78589928512395,34.718166407853516],[127.77344811294017,34.71698639480633],[127.76254316493521,34.71283600467791],[127.7607528000018,34.70473867355099],[127.77588951868643,34.691473700351025],[127.7683211597938,34.666083075373706],[127.76498457068146,34.66010162958656],[127.74626712302938,34.648423570391515],[127.74187259214648,34.64362213675224],[127.73585045743278,34.62523021040596],[127.74000084666181,34.61367422068878],[127.77540123807671,34.583970445379805],[127.78663170738741,34.57900625243667],[127.79786217489948,34.57973867380082],[127.80787194133711,34.58820221605947],[127.81511477982326,34.60195547076842],[127.81812584673048,34.616156317160346],[127.81723066516315,34.63076406540932],[127.80876712290444,34.65582916908096],[127.80160566496954,34.670477606256554],[127.79249108189799,34.682359117279475],[127.78207441540201,34.684556382271296]]],[[[125.98902428534257,34.71332428618689],[125.98047936343198,34.72622304915444],[125.97673587336192,34.728257553943024],[125.97055097664634,34.72565338709421],[125.95240319105449,34.70514557540804],[125.92286217504943,34.69537994972495],[125.91602623842027,34.68764882972977],[125.92505944094046,34.67096588686621],[125.92945397182336,34.67230866101596],[125.94516035166896,34.666815496737854],[125.95964603044001,34.65981679900614],[125.959727410092,34.65668366082235],[125.96998131638475,34.65591054873289],[125.97689863356516,34.65639883024187],[125.9838973321962,34.660630600921536],[125.99903404998145,34.677435614162334],[126.00318444100924,34.68475983319979],[126.00538170690027,34.6926130226729],[126.00407962257657,34.700262762116836],[126.0009871751181,34.70441315314457],[125.98902428534257,34.71332428618689]]],[[[126.00717207093442,34.78095123920838],[126.00440514388231,34.78717682485063],[126.00074303526299,34.79010651210592],[125.99594160162371,34.79075755381808],[125.98926842519768,34.790025131554614],[125.95655358208217,34.77973053633525],[125.93864993634554,34.77651601760016],[125.92505944094046,34.78082916883113],[125.91285241041044,34.77692291855789],[125.90186608185422,34.771063544047365],[125.8938908211046,34.762274481382235],[125.89087975419739,34.749823309198405],[125.89258873768017,34.736639715650426],[125.8977970713778,34.726019598225946],[125.90642337294037,34.719305731074655],[125.91814212286079,34.718166407853516],[125.9300236338837,34.722601630361],[125.93873131599753,34.731431381952746],[125.94410240989839,34.743231512424416],[125.94613691468692,34.75665924672688],[125.95167076879102,34.75926341357575],[125.96420332062678,34.75706614768461],[125.97787519568385,34.75714752823592],[125.98650149814569,34.766546941887896],[125.99154707074081,34.76410553614164],[126.00294030025475,34.761460678567516],[126.00757897189214,34.75971100525874],[126.00717207093442,34.78095123920838]]],[[[126.05600019575252,34.9136416691278],[126.05225670658183,34.90753815296347],[126.04395592542573,34.90741608258617],[126.03443444139646,34.909572657751994],[126.02800540482565,34.90989817905779],[126.01433352976869,34.899644272765045],[125.99634850438008,34.87604401182176],[125.98650149814569,34.86896393443806],[125.98650149814569,34.86273834789648],[125.99878991012633,34.862941798825034],[126.0314233726906,34.86896393443806],[126.0398869149492,34.86644114814055],[126.04639733207125,34.86180247560384],[126.05469811322746,34.85919830875497],[126.06910240964851,34.86273834789648],[126.08073977991694,34.87099844012596],[126.08838951936093,34.88296132990149],[126.0914819668194,34.89691803643831],[126.08912194072502,34.91132233285941],[126.08122806142592,34.92259349199611],[126.0700789717672,34.92890045818967],[126.06031334698343,34.92690664322703],[126.05600019575252,34.9136416691278]]],[[[126.11060631632847,35.05117422071379],[126.11426842494791,35.059312241666646],[126.12281334685849,35.06981028871388],[126.1340438161692,35.07880280230751],[126.14478600397092,35.082464910926944],[126.13135826876919,35.10024648628638],[126.12696373788629,35.11054108330438],[126.12777753980163,35.12055084794332],[126.13477623843266,35.12897370037604],[126.16521243600516,35.14350006717439],[126.1499129571173,35.14687734611266],[126.12940514363254,35.14288971618748],[126.11133873769268,35.133286850707634],[126.10377037880005,35.11969635620193],[126.09888756640817,35.11326731963112],[126.08790123785195,35.10887278874827],[126.07601972682903,35.10561758018724],[126.06910240964851,35.102362371626214],[126.06381269629901,35.093085028351425],[126.05600019575252,35.06134674735455],[126.06039472663542,35.060736394569005],[126.06299889438355,35.05902741108622],[126.06544030012981,35.05683014519508],[126.06910240964851,35.05459219037732],[126.07862389367779,35.05585358307644],[126.10523522242761,35.050034898391914],[126.11060631632847,35.05117422071379]]],[[[127.30909264431011,34.020086980729616],[127.29639733227111,34.03758372640789],[127.29468834698969,34.047919012352565],[127.2981063157539,34.057196355627354],[127.29566491000764,34.061468817032335],[127.29420006637997,34.0611026059006],[127.29151451897997,34.05849843995111],[127.28687584734257,34.057277736178605],[127.28321373782376,34.058294989022556],[127.28003990981404,34.05744049728116],[127.27930748755057,34.05329010625343],[127.27979576905955,34.04865143371677],[127.27833092543187,34.0446231139656],[127.2807723320775,34.03778717733644],[127.28386478043535,34.03461334842734],[127.28760826870666,34.03241608343558],[127.2898055345978,34.02407461065479],[127.29322350426139,34.017238674025634],[127.29566491000764,34.01410553584185],[127.3093367850646,34.011460679167044],[127.32349694073127,34.00576406485976],[127.32471764360446,34.01068756707758],[127.32211347675559,34.01410553584185],[127.31495201882069,34.01577383039802],[127.30909264431011,34.020086980729616]]],[[[127.53191165479905,34.45058828302291],[127.50993899768662,34.47003815293846],[127.5007430349632,34.46963125198073],[127.4917098324429,34.46222565329134],[127.48707115990612,34.46124909117265],[127.48682701915163,34.463853257122196],[127.47282962278894,34.46678294527675],[127.46534264444756,34.4703636742442],[127.45826256616454,34.47288645964244],[127.45337975377265,34.47060781499874],[127.45508873815481,34.46613190266521],[127.45573977986703,34.46051666890918],[127.4521590500002,34.45302968966848],[127.4588322273255,34.44891998936606],[127.46973717533047,34.443182684333465],[127.46705162882972,34.43919505440829],[127.47169029956774,34.43402741143592],[127.48178144565725,34.43134186403586],[127.48853600443317,34.42548248862602],[127.48894290539079,34.416937566715376],[127.49463951879886,34.41425202021463],[127.51059004029821,34.41828034086507],[127.52881920734058,34.428045965648835],[127.5363875662332,34.43475983280007],[127.5363875662332,34.4406598980359],[127.53191165479905,34.45058828302291]]],[[[127.78296959696934,34.50698476763296],[127.77491295656773,34.50820547140546],[127.77442467505875,34.51178620037291],[127.77621503999217,34.51878489810463],[127.76107832130754,34.54311758041206],[127.7480574879628,34.55109284116173],[127.72974694126833,34.54905833457451],[127.71290123820165,34.542425847974584],[127.70753014430079,34.53388092696326],[127.71461022168444,34.52684153940555],[127.72282962318866,34.52317942898753],[127.72771243558054,34.516994533171214],[127.7321883470147,34.50849030198589],[127.74195397179847,34.50226471634363],[127.75652103022139,34.49823639479382],[127.76579837259692,34.49396393428816],[127.76905358205727,34.489935613637726],[127.77116946739704,34.48818594032895],[127.77930748835001,34.48847077001005],[127.79175865963452,34.492010809151566],[127.79395592462629,34.49823639479382],[127.78956139374338,34.50397369982642],[127.78296959696934,34.50698476763296]]],[[[126.10010826928124,34.59674713707079],[126.09937584701777,34.605454820083935],[126.0870874359365,34.61115143439122],[126.07984459655097,34.61737702003347],[126.06763756602095,34.62547435116045],[126.06006920712832,34.62079498879774],[126.06641686314777,34.603989975557],[126.07642662868602,34.59076569218303],[126.0813094410779,34.58075592664477],[126.07634524813477,34.570990301861],[126.06495201862083,34.56378815320079],[126.05046634164842,34.563421942069],[126.03663170728748,34.5616722678609],[126.03126061338662,34.556382553612025],[126.05347741035428,34.55231354403486],[126.0544539715736,34.54889557527065],[126.04851321741114,34.54515208520064],[126.04346764391664,34.54096100524623],[126.03736412865169,34.54071686359242],[126.0315861337931,34.53904856993563],[126.03516686276055,34.53392161678926],[126.04672285157835,34.53115468973721],[126.05762779958332,34.53253815281357],[126.07732181115273,34.54218170811936],[126.08570397196081,34.54873281506741],[126.0937606132618,34.55365631728529],[126.09937584701777,34.558661200054416],[126.10027103038385,34.5683047553602],[126.10336347694295,34.57941315339434],[126.10425866030903,34.58978913006433],[126.10238691482436,34.59487539338477],[126.10010826928124,34.59674713707079]]],[[[126.03809655001578,34.56948476840739],[126.04859459706302,34.57005442866898],[126.05762779958332,34.57257721586586],[126.06039472663542,34.584295965786225],[126.05201256582734,34.59833405197497],[126.04135175857687,34.61115143439122],[126.02857506598662,34.634222723100265],[126.02019290517853,34.625433661334455],[126.0166121753117,34.60614655162209],[126.02051842468563,34.57143789264467],[126.02857506598662,34.56586334781531],[126.03809655001578,34.56948476840739]]],[[[125.44581139438037,34.688462631645166],[125.43726647157052,34.688299872341304],[125.43392988425683,34.69554270992819],[125.4294539719233,34.698431708256805],[125.42123457131845,34.69708893410706],[125.4128524096111,34.691961980960684],[125.40560957112484,34.68256256730871],[125.39893639379954,34.6718203804063],[125.39340253969556,34.6596540388029],[125.39234459702561,34.64630768415236],[125.39877363359642,34.63198476828251],[125.40853925927945,34.62860748934423],[125.41260826885662,34.63231028868893],[125.41773522200299,34.638128973373455],[125.42432701877692,34.64720286661907],[125.42741946713477,34.65424225507604],[125.44320722663224,34.669419663586666],[125.44581139438037,34.67511627789395],[125.45045006601777,34.67967356987941],[125.45923912868295,34.68683502781431],[125.45728600444556,34.690904039190116],[125.44581139438037,34.688462631645166]]],[[[126.1740828792216,34.73281484592843],[126.17310631620364,34.739447333427734],[126.17383873756773,34.74445221619686],[126.17025800860029,34.74994537957565],[126.16358483217437,34.75495026234478],[126.1538192073906,34.75690338658205],[126.14193769636768,34.75755442919359],[126.13314863370249,34.76121653871235],[126.12720787864077,34.766546941887896],[126.11784915481473,34.76996491065216],[126.10523522242761,34.771551824657024],[126.09457441517714,34.77065664308964],[126.08716881558848,34.76752350490585],[126.07927493628938,34.76756419473185],[126.06959069115749,34.76968008007168],[126.07374108218528,34.761379298915585],[126.09343509195594,34.744289455094304],[126.10254967502749,34.730536200385416],[126.10425866030903,34.721991277575455],[126.11133873769268,34.717718817069795],[126.11882571693332,34.71824778930409],[126.12232506624889,34.71963125238045],[126.12769616014975,34.723578191580316],[126.1384383470521,34.72345612210239],[126.14771569122627,34.71234772316893],[126.15943444114657,34.70278554931372],[126.17212975408495,34.70380280215767],[126.17790774804416,34.71336497601288],[126.17750084708643,34.724066473089295],[126.1740828792216,34.73281484592843]]],[[[126.16871178532074,34.792303777997006],[126.16627037867511,34.79645416902474],[126.15902754018884,34.804592189977654],[126.14942467470905,34.80809153929317],[126.14185631581643,34.80296458524748],[126.12728925919203,34.79775625244912],[126.10238691482436,34.794378972611526],[126.09253991038861,34.78758372580836],[126.10482832057062,34.78164297074653],[126.12159264398542,34.77651601760016],[126.13461347733016,34.76732005397736],[126.14625084669933,34.761867580424564],[126.1582137382735,34.764471747273376],[126.1642358729872,34.76976145972361],[126.16211998764743,34.78327057457739],[126.1655379573109,34.789699611148194],[126.16871178532074,34.792303777997006]]],[[[126.07943769559324,34.82265859591752],[126.09441165497401,34.80866119955476],[126.09400475401628,34.804673569629585],[126.09620201900805,34.79877350529307],[126.10523522242761,34.79816315340685],[126.11589602967808,34.80312734634998],[126.11915123823917,34.81264883037926],[126.1189070965853,34.82379791913871],[126.12517337295287,34.829657293649234],[126.13502037918727,34.82929108341682],[126.14210045657092,34.83291250221026],[126.14454186321643,34.842352605688234],[126.13965904992529,34.85789622622991],[126.15308678512713,34.86497630361356],[126.15202884155781,34.8711612003292],[126.14722740971729,34.87685781463648],[126.14226321677415,34.87913646017955],[126.1359155607546,34.87860748884458],[126.12281334685849,34.87881093977313],[126.11329186282921,34.8711612003292],[126.11524498796587,34.859442450408835],[126.11255944056575,34.853420314795756],[126.10328209729107,34.853176174041266],[126.0937606132618,34.85761139475011],[126.08179772168762,34.85659414280548],[126.06714928541123,34.85053131736646],[126.06413821670537,34.84259674734204],[126.07105553478516,34.832180079946795],[126.07943769559324,34.82265859591752]]],[[[126.24642988443168,34.91624583507729],[126.2501733727031,34.9188500019261],[126.25342858216345,34.9291852887701],[126.25318444140896,34.933498440001074],[126.24732506599901,34.93545156513767],[126.23023522217784,34.93545156513767],[126.22242272163135,34.93195221582215],[126.22038821684282,34.92243073089355],[126.22535240978596,34.91339752837331],[126.23755944121535,34.91307200706751],[126.24642988443168,34.91624583507729]]],[[[126.17839602955314,35.04848867421299],[126.17416425887347,35.05316803567638],[126.16529381565715,35.05524323119022],[126.15251712306679,35.054388739448825],[126.14380944095296,35.05768463693647],[126.13738040528153,35.05687083502107],[126.1296492852864,35.05267975506672],[126.12777753980163,35.04816315290725],[126.13209069103266,35.047105210237305],[126.13656660156744,35.04775625194952],[126.13941491007006,35.04645416942441],[126.13217207068453,35.041937567264995],[126.13355553466022,35.039740302273174],[126.13851972670409,35.0398623717511],[126.1423445973254,35.03827545774624],[126.14380944095296,35.03392161668933],[126.1486108727936,35.0335147157316],[126.15398196669446,35.03571198072336],[126.15805097717089,35.03343333518035],[126.1670028000392,35.025295315126755],[126.17237389394006,35.02362701967127],[126.17741946743456,35.02594635593965],[126.18165123811423,35.029120183949374],[126.18189537886872,35.03888580873314],[126.18091881585076,35.044012761879515],[126.17839602955314,35.04848867421299]]],[[[125.12769616034961,34.04857005406478],[125.12989342534138,34.04755280212015],[125.13428795712355,34.04686106968268],[125.13738040458202,34.05133698111683],[125.13640384156406,34.05927155204057],[125.12208092479489,34.08380768437718],[125.11329186302908,34.09284088689748],[125.10222415482099,34.09593333525527],[125.094574415377,34.09007395984543],[125.08969160208585,34.0795352229722],[125.09213300873148,34.071763414050395],[125.10328209659156,34.066066798843735],[125.12281334705835,34.051174220913595],[125.12769616034961,34.04857005406478]]],[[[126.59896894596011,34.168646551597135],[126.59327233165288,34.169989324847506],[126.58204186324144,34.170152085050745],[126.57374108208535,34.16803619971091],[126.56788170667551,34.168646551597135],[126.54810631635348,34.17910390791906],[126.5328882171176,34.17910390791906],[126.5151473315841,34.16885000162631],[126.50635826891903,34.15399811442148],[126.5070906911825,34.138861394837534],[126.51775149843297,34.12714264491717],[126.53687584704278,34.12645091427834],[126.55193118607542,34.13397858334497],[126.56185957106243,34.14142487186041],[126.57300865982188,34.14769114822798],[126.57642662858609,34.15306224212884],[126.58179772158769,34.15741608318575],[126.591156446313,34.15761953321493],[126.60027103028392,34.15346914308651],[126.60401451855523,34.152248440213384],[126.60580488438802,34.15615468958731],[126.60938561335547,34.15566640807833],[126.61353600438315,34.15253326989455],[126.6159774101294,34.15696849240203],[126.60767662897331,34.1655947939646],[126.59896894596011,34.168646551597135]]],[[[126.67204837343377,34.153265692158016],[126.66187584679301,34.165716864341846],[126.66358483207443,34.173325913959786],[126.67310631610371,34.18012116076301],[126.67074629000933,34.189886786446095],[126.65381920729067,34.19708893420699],[126.64527428538008,34.197170314758296],[126.64478600387099,34.19375234599403],[126.63648522181563,34.18716054922004],[126.63843834695217,34.18256256740864],[126.64503014372622,34.1774763040882],[126.64283287873445,34.164618230946644],[126.63648522181563,34.14154694223765],[126.63868248770666,34.12811920793513],[126.64380944085303,34.127183334743165],[126.64861087269367,34.12400950673339],[126.65040123762708,34.11937083509599],[126.65552819077345,34.11684804879849],[126.66537519610847,34.119086005414886],[126.6704207687036,34.126939194887996],[126.6704207687036,34.1370303409775],[126.67188561323053,34.142971096039275],[126.67628014411343,34.14354075720024],[126.67945397212316,34.14655182500678],[126.67603600425821,34.151434637398665],[126.67204837343377,34.153265692158016]]],[[[126.90935306089511,34.19769928609321],[126.8992619148056,34.20966217676812],[126.88217207098432,34.21328359556156],[126.8679305347664,34.20746491087698],[126.86085045738275,34.20184967712095],[126.85694420710956,34.194281317329],[126.85531660237939,34.18475983329972],[126.84913170656307,34.17438385573041],[126.8532007170395,34.15900299719061],[126.85694420710956,34.15717194243126],[126.86036217497451,34.16217682520039],[126.86695397174844,34.16282786691261],[126.875987175168,34.15607330903606],[126.88697350372433,34.15135325684736],[126.90186608165436,34.15241120041662],[126.91358483157478,34.15766022304092],[126.91993248759434,34.16697825704097],[126.92237389423985,34.17234935094183],[126.92497806108872,34.18488190277765],[126.91895592457627,34.190497137433],[126.90935306089511,34.19769928609321]]],[[[126.61215254040746,34.21816640795339],[126.60694420670984,34.22138092668848],[126.59620201890812,34.22601959832588],[126.57536868591615,34.22894928558111],[126.56763756592102,34.232407945070634],[126.55974368572254,34.234523830410524],[126.55640709661031,34.23212311359089],[126.56153404975669,34.22516510568511],[126.56218509236817,34.222316798981126],[126.5598250662739,34.22016022291598],[126.55616295675509,34.218654690361745],[126.55534915483963,34.216457423571285],[126.55730227997628,34.21405670765097],[126.55689537901856,34.21100495001849],[126.55396569086406,34.206529038584335],[126.54883873771769,34.19456614790943],[126.54981529983627,34.19122955879715],[126.55453535202491,34.19041575688175],[126.55876712270458,34.18915436418263],[126.56072024784123,34.185126044431456],[126.56861412893898,34.179022528267126],[126.58383222727548,34.17560455860354],[126.5888777998706,34.17910390791906],[126.5839949883781,34.18626536675333],[126.5920516287797,34.1876488298297],[126.60661868630336,34.188299872441235],[126.61011803471956,34.1996931010558],[126.61703535190009,34.20453522272243],[126.61622154998463,34.21328359556156],[126.61215254040746,34.21816640795339]]],[[[126.0887150397673,34.307928778290545],[126.08204186334137,34.31073639516853],[126.06763756602095,34.3089053413085],[126.03321373762401,34.31488678619627],[126.02572675928263,34.31077708499453],[126.02523847687428,34.30585358277665],[126.02100670709387,34.30109284076207],[126.02165774790683,34.29564036720922],[126.02865644563849,34.2873395851538],[126.0493270193266,34.28021881704484],[126.05567467534604,34.2809919291343],[126.0573836597282,34.28595612207744],[126.06080162939179,34.28607819155536],[126.06495201862083,34.2807070976545],[126.069346550403,34.27899811417166],[126.07496178505835,34.282863673719646],[126.08464603019024,34.28388092656354],[126.08936608237889,34.28961823069682],[126.08773847674934,34.296820380256406],[126.0887150397673,34.307928778290545]]],[[[126.85385175875172,34.30853913017677],[126.8588973322461,34.312201238796206],[126.86817467462163,34.31362539259783],[126.87680097708346,34.31224192862214],[126.88306725435041,34.3179385438288],[126.88404381556973,34.324896551734525],[126.88559003974865,34.32831451959947],[126.89136803460713,34.333929755154145],[126.89332115974378,34.34125397329228],[126.8845320970787,34.34552643379794],[126.87037194141203,34.348374742300564],[126.85922285175332,34.3493513044192],[126.85499108197291,34.348700261807664],[126.85075931129325,34.348456121952495],[126.84351647190772,34.35004303595741],[126.83765709739714,34.35374583530211],[126.82748457075638,34.35162994996227],[126.81397545680193,34.34251536689072],[126.80290774769446,34.338690497168784],[126.79379316462291,34.34223053631024],[126.78589928532381,34.34324778915419],[126.78223717490573,34.341782944627255],[126.77784264402283,34.33966705928742],[126.76783287938395,34.33722565264179],[126.75757897219182,34.33612702014591],[126.75896243616751,34.332749742106955],[126.78109785168454,34.324652410980036],[126.78492272230585,34.32257721636552],[126.78874759202779,34.32094961073602],[126.79835045660832,34.320868231084035],[126.81031334728323,34.32436758039955],[126.82056725357597,34.325628973098674],[126.82829837267184,34.32290273587262],[126.8336694665727,34.31683991133292],[126.8357039722606,34.30914948116367],[126.84058678465249,34.30337148630508],[126.84961998807205,34.304917709584686],[126.85385175875172,34.30853913017677]]],[[[127.09156334717079,34.34491608281104],[127.08545983190584,34.351385809207784],[127.08204186314151,34.35594310119319],[127.07740319060485,34.359320380131464],[127.0673934250666,34.3583845069395],[127.05372155000964,34.35480377797205],[127.04590905036241,34.35765208467603],[127.04216556119172,34.366685288994915],[127.03565514406966,34.37474192939658],[127.02857506578675,34.38043854370386],[127.02540123777692,34.38133372617057],[127.02621503969237,34.378729559321755],[127.01628665470537,34.37189362179328],[127.00700931143069,34.36261627761917],[127.00123131567273,34.35936106995746],[126.99382571698334,34.35814036708433],[126.99146569088896,34.35626862159967],[126.99431399759294,34.35468170759481],[127.000824414715,34.3528506528354],[127.0175887381298,34.35154857031034],[127.02426191455572,34.348211981198006],[127.0266219406501,34.34316640770362],[127.02369225429413,34.33917877777844],[127.04558352995605,34.335435288607755],[127.0491642589235,34.33144765778326],[127.04281660200468,34.32794830936706],[127.0378524099608,34.32172272282543],[127.0388289720795,34.31289297123368],[127.04908287927151,34.316717840955675],[127.06674238425364,34.32819245012155],[127.07398522184053,34.334173895009314],[127.06788170657558,34.33706289333793],[127.06527753972671,34.339789129664666],[127.07243899766172,34.342108465932995],[127.08236738444725,34.340277411173645],[127.09083092490732,34.33673737203213],[127.09693444107165,34.33779531470208],[127.094981315935,34.34247467706473],[127.09156334717079,34.34491608281104]]],[[[126.76392662911076,34.3092308608156],[126.74561608241629,34.32420482019637],[126.74252363405856,34.332749742106955],[126.73707115960644,34.338853257371966],[126.73389733159661,34.34617747640948],[126.73113040544388,34.362005926632264],[126.72185306126983,34.38129303634463],[126.7099715502469,34.39288971588775],[126.69922936334456,34.39891185060145],[126.68775475417863,34.402044988785235],[126.67017662884837,34.40058014515762],[126.66439863398978,34.39948151176242],[126.65365644618805,34.395209052156076],[126.64576256598968,34.385565496850234],[126.64177493606451,34.372951565362484],[126.64096113414905,34.360337632076096],[126.64193769626775,34.347967841342836],[126.64486738442235,34.33710358316387],[126.65186608215402,34.32977936412641],[126.66358483207443,34.32343170810691],[126.67660566541917,34.32046133012636],[126.68702233191516,34.32269928584344],[126.695648634377,34.3207868514321],[126.69809004012336,34.31342194166933],[126.6888126959492,34.30756256715881],[126.68897545705181,34.30109284076207],[126.70777428525514,34.29564036720922],[126.72291100393977,34.292710679054665],[126.73170006570558,34.28937409084165],[126.73650149844548,34.29169342711003],[126.73747806056406,34.297552801620554],[126.7417098321431,34.29824453315871],[126.74935957068772,34.29413483285629],[126.75831139355603,34.29092031502057],[126.76319420684717,34.289780991799375],[126.76807701923906,34.289211329739146],[126.77149498800338,34.29189687713921],[126.7658797542473,34.30304596589866],[126.76392662911076,34.3092308608156]]],[[[126.7624617845837,34.38296133000142],[126.76726321732372,34.38003164274619],[126.76937910176423,34.37132395973299],[126.76921634156099,34.36098867378831],[126.77572675868305,34.354722398320064],[126.78109785168454,34.35785553560453],[126.78402753983914,34.36859772340625],[126.7933048840132,34.37889232042431],[126.81967207110927,34.38906484616575],[126.82471764370439,34.395209052156076],[126.83326256561497,34.396958726364176],[126.85377037909973,34.39175039266655],[126.86109459723798,34.39276764461118],[126.86019941477127,34.39887116077551],[126.85352623834524,34.40688711135118],[126.8458764980021,34.41396718963415],[126.83659915472731,34.4186465519968],[126.83578535191248,34.42104726791712],[126.84099368561021,34.42548248862602],[126.84017988369476,34.432074286299326],[126.83545983240538,34.43805573118709],[126.8230086602216,34.439846096120505],[126.80225670688162,34.4357770847447],[126.78248131566022,34.42674388222446],[126.76840253964554,34.41136302278534],[126.76148522156575,34.39874909129759],[126.75684654992835,34.39288971588775],[126.75318444130903,34.3869489599266],[126.75757897219182,34.383246160581905],[126.7624617845837,34.38296133000142]]],[[[126.34066816530367,34.86408112204617],[126.32650800873762,34.86420319242342],[126.32007897216693,34.865871486080266],[126.3186955090905,34.870550848442974],[126.31812584703027,34.87645091367875],[126.31999759161567,34.88108958531615],[126.33521569085156,34.88939036737162],[126.34392337296538,34.89032623876494],[126.34522545728908,34.89622630400078],[126.3325301443507,34.90672435104801],[126.31470787916533,34.91412994973746],[126.29737389369029,34.91754791940099],[126.28646894568533,34.91290924686433],[126.28980553479767,34.90302155170332],[126.29761803534416,34.89423248903819],[126.29712975383518,34.88690827000073],[126.29265384240102,34.880682684358476],[126.28012128966589,34.8775088563487],[126.27914472664793,34.87327708476971],[126.27588951898622,34.87051015771766],[126.27230879001866,34.86676666944629],[126.2519637376364,34.86066315328196],[126.2360945966883,34.85980866064125],[126.23072350368682,34.85455963711763],[126.23682701895177,34.84804922089489],[126.24870852997469,34.844712631782556],[126.26351972735358,34.84666575691921],[126.27662194124969,34.85195547116814],[126.30616295725474,34.85590241126732],[126.31031334738316,34.85407135560865],[126.33822675865804,34.841457424120904],[126.34083092460753,34.83746979419567],[126.33765709659781,34.83173248916307],[126.33130944057825,34.825832423927295],[126.34205162927935,34.82249583481496],[126.36166425939814,34.83738841364442],[126.35962975371024,34.858587957768066],[126.34066816530367,34.86408112204617]]],[[[126.23422285210302,35.04706452041137],[126.23406009189978,35.03831614757223],[126.23804772182496,35.03241608323572],[126.24293053511622,35.02728913008934],[126.25456790538453,35.0250918641982],[126.25717207133414,35.02195872601442],[126.26107832070795,35.02456289286329],[126.26498457098126,35.03424713709575],[126.2631942069471,35.041896877439],[126.2581486343521,35.04751211119503],[126.25513756564624,35.056382554411414],[126.24919681058441,35.06329987159188],[126.23878014408842,35.06386953275279],[126.22950279991437,35.067328192242314],[126.21851647225742,35.07660553641642],[126.21851647225742,35.08193593959197],[126.22242272163135,35.08563873893672],[126.23161868615352,35.0861270204457],[126.23853600423331,35.09186432457898],[126.23601321703643,35.098374741701036],[126.22982832122011,35.09690989807336],[126.22494550882823,35.09674713697086],[126.22282962258907,35.10114166875309],[126.21664472677276,35.10366445505059],[126.2070418630916,35.09951406492223],[126.1985783208329,35.097113348102596],[126.18921959700685,35.10224030214829],[126.17750084708643,35.105780341289744],[126.16480553504744,35.102280991974226],[126.1587020188831,35.0942243506733],[126.16944420668483,35.073675848261814],[126.17481529968643,35.068264065434334],[126.18051191489303,35.06590403934001],[126.18482506612395,35.0626895197056],[126.18913821735487,35.06195709834145],[126.19792728002005,35.0612653668033],[126.20362389432728,35.05719635632681],[126.22925866005914,35.05365631718536],[126.2360945966883,35.051947332803195],[126.23422285210302,35.04706452041137]]]]}}